SL-16 R/B               
1 25400U 98043G   25361.74343354  .00000097  00000+0  59487-4 0  9997
2 25400  98.8147 309.6471 0009106 218.4695 141.5836 14.26029068428731
SL-16 R/B               
1 25407U 98045B   25361.38591685  .00000254  00000+0  15247-3 0  9998
2 25407  71.0123 333.6253 0006048 152.2421 207.9026 14.16179533416865
ISS (ZARYA)             
1 25544U 98067A   25361.56640462  .00014449  00000+0  26180-3 0  9991
2 25544  51.6320  69.0472 0003237 310.8255  49.2453 15.49876615545155
CZ-4B R/B               
1 25732U 99025C   25361.86874778  .00000063  00000+0  51440-4 0  9992
2 25732  98.6749  42.8089 0036984 189.9251 343.4258 14.18247329377984
OKEAN-O                 
1 25860U 99039A   25361.59413094  .00000866  00000+0  12090-3 0  9997
2 25860  97.9583  57.1660 0001185 114.9231 245.2104 14.80186923423723
SL-16 R/B               
1 25861U 99039B   25361.71003966  .00000747  00000+0  10178-3 0  9998
2 25861  98.0107  55.8609 0015914 128.0351 232.2300 14.81608417426208
DELTA 2 R/B             
1 25876U 99041E   25361.79575464  .00001677  00000+0  30881-3 0  9998
2 25876  51.7596 228.3427 0504396 136.1377 228.0775 14.11443788352873
HELIOS 1B               
1 25977U 99064A   25361.60427514  .00002617  00000+0  29625-3 0  9996
2 25977  98.1748 256.7112 0000810  30.8324 329.2939 14.87343385674541
TERRA                   
1 25994U 99068A   25361.81185208  .00000560  00000+0  12352-3 0  9997
2 25994  97.9728  52.9416 0003343  64.1856  47.4886 14.60918957384588
SL-16 R/B               
1 26070U 00006B   25361.73579458  .00000255  00000+0  15376-3 0  9992
2 26070  71.0010 249.1275 0018610 288.3857  71.5243 14.15810180338378
TITAN 4B R/B            
1 26474U 00047B   25361.85715668  .00004024  00000+0  25886-3 0  9998
2 26474  67.9888 242.3954 0037903 125.9480 234.5195 15.08891212382077
ENVISAT                 
1 27386U 02009A   25352.94754304  .00000081  00000+0  39999-4 0  9991
2 27386  98.3609 303.5309 0001126  84.8976 298.2993 14.39001403247569
